[{"OBJECT_NAME":"ASTROCAST-0402","OBJECT_ID":"2023-001DE","EPOCH":"2026-03-09T19:21:31.190400","MEAN_MOTION":15.26734153,"ECCENTRICITY":0.00042092,"INCLINATION":97.5556,"RA_OF_ASC_NODE":160.6821,"ARG_OF_PERICENTER":216.6984,"MEAN_ANOMALY":143.3966,"EPHEMERIS_TYPE":0,"CLASSIFICATION_TYPE":"U","NORAD_CAT_ID":55109,"ELEMENT_SET_NO":999,"REV_AT_EPOCH":12936,"BSTAR":0.00041835119,"MEAN_MOTION_DOT":0.0001093,"MEAN_MOTION_DDOT":0},{"OBJECT_NAME":"STARLINK-33679","OBJECT_ID":"2025-070A","EPOCH":"2026-03-09T21:19:52.510944","MEAN_MOTION":15.27591438,"ECCENTRICITY":0.0002205,"INCLINATION":42.9999,"RA_OF_ASC_NODE":258.9858,"ARG_OF_PERICENTER":253.8759,"MEAN_ANOMALY":106.1851,"EPHEMERIS_TYPE":0,"CLASSIFICATION_TYPE":"U","NORAD_CAT_ID":63460,"ELEMENT_SET_NO":999,"REV_AT_EPOCH":5300,"BSTAR":0.0008433761,"MEAN_MOTION_DOT":0.00023027,"MEAN_MOTION_DDOT":0}]
